[{"OBJECT_NAME":"STARLINK-3674","OBJECT_ID":"2022-025V","EPOCH":"2026-03-09T06:32:05.700480","MEAN_MOTION":15.30177312,"ECCENTRICITY":0.00014249,"INCLINATION":53.1603,"RA_OF_ASC_NODE":25.7727,"ARG_OF_PERICENTER":85.3718,"MEAN_ANOMALY":274.7445,"EPHEMERIS_TYPE":0,"CLASSIFICATION_TYPE":"U","NORAD_CAT_ID":51975,"ELEMENT_SET_NO":999,"REV_AT_EPOCH":22096,"BSTAR":7.3980431e-5,"MEAN_MOTION_DOT":1.831e-5,"MEAN_MOTION_DDOT":0},{"OBJECT_NAME":"OBJECT K","OBJECT_ID":"2024-205K","EPOCH":"2026-03-09T22:22:01.331040","MEAN_MOTION":15.27932792,"ECCENTRICITY":0.00106729,"INCLINATION":97.417,"RA_OF_ASC_NODE":146.2172,"ARG_OF_PERICENTER":37.4736,"MEAN_ANOMALY":322.7246,"EPHEMERIS_TYPE":0,"CLASSIFICATION_TYPE":"U","NORAD_CAT_ID":61903,"ELEMENT_SET_NO":999,"REV_AT_EPOCH":7347,"BSTAR":0.00067315144,"MEAN_MOTION_DOT":0.00018331,"MEAN_MOTION_DDOT":0}]
